[Satellite]
VERSION=1.1
NAME=IRIDIUM 131 [+]
NICKNAME=IRIDIUM 131 [+]
TLE1=1 43079U 17083K   20157.73702844  .00000092  00000-0  25640-4 0  9994
TLE2=2 43079  86.3977 162.4924 0002454  85.2551 274.8925 14.34216437128423
STATUS=0
